[{"OBJECT_NAME":"ONEWEB-0531","OBJECT_ID":"2022-138AK","EPOCH":"2025-12-01T15:48:38.731968","MEAN_MOTION":13.20769751,"ECCENTRICITY":0.0001038,"INCLINATION":87.9195,"RA_OF_ASC_NODE":313.8281,"ARG_OF_PERICENTER":62.3088,"MEAN_ANOMALY":297.8151,"EPHEMERIS_TYPE":0,"CLASSIFICATION_TYPE":"U","NORAD_CAT_ID":54146,"ELEMENT_SET_NO":999,"REV_AT_EPOCH":15323,"BSTAR":0.00044555,"MEAN_MOTION_DOT":1.94e-6,"MEAN_MOTION_DDOT":0},{"OBJECT_NAME":"ONEWEB-0535","OBJECT_ID":"2022-138AL","EPOCH":"2025-12-01T17:28:34.756320","MEAN_MOTION":13.19726724,"ECCENTRICITY":0.0001426,"INCLINATION":87.9205,"RA_OF_ASC_NODE":344.2361,"ARG_OF_PERICENTER":96.6792,"MEAN_ANOMALY":263.4503,"EPHEMERIS_TYPE":0,"CLASSIFICATION_TYPE":"U","NORAD_CAT_ID":54147,"ELEMENT_SET_NO":999,"REV_AT_EPOCH":15079,"BSTAR":0.00027863,"MEAN_MOTION_DOT":1.24e-6,"MEAN_MOTION_DDOT":0},{"OBJECT_NAME":"ONEWEB-0536","OBJECT_ID":"2022-138AM","EPOCH":"2025-12-01T15:30:28.433088","MEAN_MOTION":13.20773568,"ECCENTRICITY":0.0001125,"INCLINATION":87.9182,"RA_OF_ASC_NODE":313.8748,"ARG_OF_PERICENTER":53.217,"MEAN_ANOMALY":306.9067,"EPHEMERIS_TYPE":0,"CLASSIFICATION_TYPE":"U","NORAD_CAT_ID":54148,"ELEMENT_SET_NO":999,"REV_AT_EPOCH":15322,"BSTAR":0.00025346,"MEAN_MOTION_DOT":1.16e-6,"MEAN_MOTION_DDOT":0},{"OBJECT_NAME":"ONEWEB-0527","OBJECT_ID":"2022-166A","EPOCH":"2025-12-01T19:55:28.002144","MEAN_MOTION":13.21826388,"ECCENTRICITY":0.0001846,"INCLINATION":87.9207,"RA_OF_ASC_NODE":283.3643,"ARG_OF_PERICENTER":77.4626,"MEAN_ANOMALY":282.6715,"EPHEMERIS_TYPE":0,"CLASSIFICATION_TYPE":"U","NORAD_CAT_ID":54642,"ELEMENT_SET_NO":999,"REV_AT_EPOCH":14546,"BSTAR":-2.2374e-5,"MEAN_MOTION_DOT":4.0e-8,"MEAN_MOTION_DDOT":0},{"OBJECT_NAME":"ONEWEB-0528","OBJECT_ID":"2022-166B","EPOCH":"2025-12-01T20:04:57.945792","MEAN_MOTION":13.21826973,"ECCENTRICITY":0.0001903,"INCLINATION":87.9207,"RA_OF_ASC_NODE":283.3667,"ARG_OF_PERICENTER":77.3317,"MEAN_ANOMALY":282.8029,"EPHEMERIS_TYPE":0,"CLASSIFICATION_TYPE":"U","NORAD_CAT_ID":54643,"ELEMENT_SET_NO":999,"REV_AT_EPOCH":14547,"BSTAR":-0.00029395,"MEAN_MOTION_DOT":-1.08e-6,"MEAN_MOTION_DDOT":0},{"OBJECT_NAME":"ONEWEB-0539","OBJECT_ID":"2022-166C","EPOCH":"2025-12-01T19:10:28.052256","MEAN_MOTION":13.2182471,"ECCENTRICITY":0.0001942,"INCLINATION":87.9205,"RA_OF_ASC_NODE":283.3403,"ARG_OF_PERICENTER":84.3732,"MEAN_ANOMALY":275.7623,"EPHEMERIS_TYPE":0,"CLASSIFICATION_TYPE":"U","NORAD_CAT_ID":54644,"ELEMENT_SET_NO":999,"REV_AT_EPOCH":14546,"BSTAR":0.00012605,"MEAN_MOTION_DOT":6.5e-7,"MEAN_MOTION_DDOT":0},{"OBJECT_NAME":"ONEWEB-0540","OBJECT_ID":"2022-166D","EPOCH":"2025-12-01T13:53:06.110016","MEAN_MOTION":13.21823205,"ECCENTRICITY":0.000177,"INCLINATION":87.9204,"RA_OF_ASC_NODE":283.4221,"ARG_OF_PERICENTER":84.3472,"MEAN_ANOMALY":275.7864,"EPHEMERIS_TYPE":0,"CLASSIFICATION_TYPE":"U","NORAD_CAT_ID":54645,"ELEMENT_SET_NO":999,"REV_AT_EPOCH":14542,"BSTAR":0.00030349,"MEAN_MOTION_DOT":1.38e-6,"MEAN_MOTION_DDOT":0},{"OBJECT_NAME":"ONEWEB-0542","OBJECT_ID":"2022-166E","EPOCH":"2025-12-01T19:24:39.429216","MEAN_MOTION":13.21822981,"ECCENTRICITY":0.0001821,"INCLINATION":87.9205,"RA_OF_ASC_NODE":283.3352,"ARG_OF_PERICENTER":91.868,"MEAN_ANOMALY":268.2662,"EPHEMERIS_TYPE":0,"CLASSIFICATION_TYPE":"U","NORAD_CAT_ID":54646,"ELEMENT_SET_NO":999,"REV_AT_EPOCH":14546,"BSTAR":0.00020406,"MEAN_MOTION_DOT":9.7e-7,"MEAN_MOTION_DDOT":0},{"OBJECT_NAME":"ONEWEB-0545","OBJECT_ID":"2022-166F","EPOCH":"2025-12-01T20:23:53.520000","MEAN_MOTION":13.21817854,"ECCENTRICITY":0.0001884,"INCLINATION":87.9206,"RA_OF_ASC_NODE":283.3469,"ARG_OF_PERICENTER":91.124,"MEAN_ANOMALY":269.011,"EPHEMERIS_TYPE":0,"CLASSIFICATION_TYPE":"U","NORAD_CAT_ID":54647,"ELEMENT_SET_NO":999,"REV_AT_EPOCH":14543,"BSTAR":-0.00014998,"MEAN_MOTION_DOT":-4.9e-7,"MEAN_MOTION_DDOT":0},{"OBJECT_NAME":"ONEWEB-0580","OBJECT_ID":"2022-166G","EPOCH":"2025-12-01T19:46:00.359328","MEAN_MOTION":13.21823918,"ECCENTRICITY":0.0001691,"INCLINATION":87.9207,"RA_OF_ASC_NODE":283.351,"ARG_OF_PERICENTER":90.1788,"MEAN_ANOMALY":269.954,"EPHEMERIS_TYPE":0,"CLASSIFICATION_TYPE":"U","NORAD_CAT_ID":54648,"ELEMENT_SET_NO":999,"REV_AT_EPOCH":14547,"BSTAR":8.8433e-5,"MEAN_MOTION_DOT":5.0e-7,"MEAN_MOTION_DDOT":0},{"OBJECT_NAME":"ONEWEB-0582","OBJECT_ID":"2022-166H","EPOCH":"2025-12-01T18:58:36.352128","MEAN_MOTION":13.21824133,"ECCENTRICITY":0.000177,"INCLINATION":87.9207,"RA_OF_ASC_NODE":283.3507,"ARG_OF_PERICENTER":95.8377,"MEAN_ANOMALY":264.2959,"EPHEMERIS_TYPE":0,"CLASSIFICATION_TYPE":"U","NORAD_CAT_ID":54649,"ELEMENT_SET_NO":999,"REV_AT_EPOCH":14544,"BSTAR":6.8245e-5,"MEAN_MOTION_DOT":4.1e-7,"MEAN_MOTION_DDOT":0},{"OBJECT_NAME":"ONEWEB-0583","OBJECT_ID":"2022-166J","EPOCH":"2025-12-01T13:48:10.977120","MEAN_MOTION":13.21824039,"ECCENTRICITY":0.0001899,"INCLINATION":87.9205,"RA_OF_ASC_NODE":283.4185,"ARG_OF_PERICENTER":83.2468,"MEAN_ANOMALY":276.8882,"EPHEMERIS_TYPE":0,"CLASSIFICATION_TYPE":"U","NORAD_CAT_ID":54650,"ELEMENT_SET_NO":999,"REV_AT_EPOCH":14542,"BSTAR":0.0002385,"MEAN_MOTION_DOT":1.12e-6,"MEAN_MOTION_DDOT":0},{"OBJECT_NAME":"ONEWEB-0584","OBJECT_ID":"2022-166K","EPOCH":"2025-12-01T19:43:36.631200","MEAN_MOTION":13.21825187,"ECCENTRICITY":0.0001624,"INCLINATION":87.9207,"RA_OF_ASC_NODE":283.3552,"ARG_OF_PERICENTER":89.4845,"MEAN_ANOMALY":270.6475,"EPHEMERIS_TYPE":0,"CLASSIFICATION_TYPE":"U","NORAD_CAT_ID":54651,"ELEMENT_SET_NO":999,"REV_AT_EPOCH":14544,"BSTAR":-0.00079822,"MEAN_MOTION_DOT":-3.17e-6,"MEAN_MOTION_DDOT":0},{"OBJECT_NAME":"ONEWEB-0585","OBJECT_ID":"2022-166L","EPOCH":"2025-12-01T20:19:11.097408","MEAN_MOTION":13.21826939,"ECCENTRICITY":0.0001826,"INCLINATION":87.9205,"RA_OF_ASC_NODE":283.3351,"ARG_OF_PERICENTER":75.5606,"MEAN_ANOMALY":284.573,"EPHEMERIS_TYPE":0,"CLASSIFICATION_TYPE":"U","NORAD_CAT_ID":54652,"ELEMENT_SET_NO":999,"REV_AT_EPOCH":14545,"BSTAR":-7.8076e-5,"MEAN_MOTION_DOT":-1.9e-7,"MEAN_MOTION_DDOT":0},{"OBJECT_NAME":"ONEWEB-0586","OBJECT_ID":"2022-166M","EPOCH":"2025-12-01T18:49:08.541696","MEAN_MOTION":13.21824482,"ECCENTRICITY":0.0001828,"INCLINATION":87.9205,"RA_OF_ASC_NODE":283.3731,"ARG_OF_PERICENTER":84.9694,"MEAN_ANOMALY":275.1649,"EPHEMERIS_TYPE":0,"CLASSIFICATION_TYPE":"U","NORAD_CAT_ID":54653,"ELEMENT_SET_NO":999,"REV_AT_EPOCH":14544,"BSTAR":5.4102e-6,"MEAN_MOTION_DOT":1.5e-7,"MEAN_MOTION_DDOT":0},{"OBJECT_NAME":"ONEWEB-0587","OBJECT_ID":"2022-166N","EPOCH":"2025-12-01T19:03:21.339936","MEAN_MOTION":13.2182454,"ECCENTRICITY":0.0001902,"INCLINATION":87.9217,"RA_OF_ASC_NODE":283.326,"ARG_OF_PERICENTER":67.0623,"MEAN_ANOMALY":293.0711,"EPHEMERIS_TYPE":0,"CLASSIFICATION_TYPE":"U","NORAD_CAT_ID":54654,"ELEMENT_SET_NO":999,"REV_AT_EPOCH":14560,"BSTAR":0.00012274,"MEAN_MOTION_DOT":6.4e-7,"MEAN_MOTION_DDOT":0},{"OBJECT_NAME":"ONEWEB-0589","OBJECT_ID":"2022-166P","EPOCH":"2025-12-01T20:33:24.561792","MEAN_MOTION":13.21825602,"ECCENTRICITY":0.0001537,"INCLINATION":87.9205,"RA_OF_ASC_NODE":283.3494,"ARG_OF_PERICENTER":108.4085,"MEAN_ANOMALY":251.7217,"EPHEMERIS_TYPE":0,"CLASSIFICATION_TYPE":"U","NORAD_CAT_ID":54655,"ELEMENT_SET_NO":999,"REV_AT_EPOCH":14547,"BSTAR":-2.7123e-5,"MEAN_MOTION_DOT":2.0e-8,"MEAN_MOTION_DDOT":0},{"OBJECT_NAME":"ONEWEB-0590","OBJECT_ID":"2022-166Q","EPOCH":"2025-12-01T13:52:43.187232","MEAN_MOTION":13.21823764,"ECCENTRICITY":0.0001445,"INCLINATION":87.9208,"RA_OF_ASC_NODE":283.3815,"ARG_OF_PERICENTER":71.3811,"MEAN_ANOMALY":288.7479,"EPHEMERIS_TYPE":0,"CLASSIFICATION_TYPE":"U","NORAD_CAT_ID":54656,"ELEMENT_SET_NO":999,"REV_AT_EPOCH":14542,"BSTAR":0.00027881,"MEAN_MOTION_DOT":1.28e-6,"MEAN_MOTION_DDOT":0},{"OBJECT_NAME":"ONEWEB-0591","OBJECT_ID":"2022-166R","EPOCH":"2025-12-01T19:36:30.121920","MEAN_MOTION":13.2182752,"ECCENTRICITY":0.0001741,"INCLINATION":87.9205,"RA_OF_ASC_NODE":283.3575,"ARG_OF_PERICENTER":80.9113,"MEAN_ANOMALY":279.2218,"EPHEMERIS_TYPE":0,"CLASSIFICATION_TYPE":"U","NORAD_CAT_ID":54657,"ELEMENT_SET_NO":999,"REV_AT_EPOCH":14548,"BSTAR":-0.00028231,"MEAN_MOTION_DOT":-1.04e-6,"MEAN_MOTION_DDOT":0},{"OBJECT_NAME":"ONEWEB-0592","OBJECT_ID":"2022-166S","EPOCH":"2025-12-01T19:41:15.215136","MEAN_MOTION":13.21823499,"ECCENTRICITY":0.0001722,"INCLINATION":87.9216,"RA_OF_ASC_NODE":283.3188,"ARG_OF_PERICENTER":80.4697,"MEAN_ANOMALY":279.6632,"EPHEMERIS_TYPE":0,"CLASSIFICATION_TYPE":"U","NORAD_CAT_ID":54658,"ELEMENT_SET_NO":999,"REV_AT_EPOCH":14536,"BSTAR":-8.0083e-6,"MEAN_MOTION_DOT":1.0e-7,"MEAN_MOTION_DDOT":0},{"OBJECT_NAME":"ONEWEB-0593","OBJECT_ID":"2022-166T","EPOCH":"2025-12-01T20:14:26.805984","MEAN_MOTION":13.21825517,"ECCENTRICITY":0.0001912,"INCLINATION":87.9206,"RA_OF_ASC_NODE":283.3421,"ARG_OF_PERICENTER":83.2743,"MEAN_ANOMALY":276.8608,"EPHEMERIS_TYPE":0,"CLASSIFICATION_TYPE":"U","NORAD_CAT_ID":54659,"ELEMENT_SET_NO":999,"REV_AT_EPOCH":14547,"BSTAR":-4.392e-5,"MEAN_MOTION_DOT":-5.0e-8,"MEAN_MOTION_DDOT":0},{"OBJECT_NAME":"ONEWEB-0594","OBJECT_ID":"2022-166U","EPOCH":"2025-12-01T18:53:51.272736","MEAN_MOTION":13.21823406,"ECCENTRICITY":0.000189,"INCLINATION":87.9206,"RA_OF_ASC_NODE":283.3712,"ARG_OF_PERICENTER":78.5417,"MEAN_ANOMALY":281.5929,"EPHEMERIS_TYPE":0,"CLASSIFICATION_TYPE":"U","NORAD_CAT_ID":54660,"ELEMENT_SET_NO":999,"REV_AT_EPOCH":14548,"BSTAR":3.0146e-5,"MEAN_MOTION_DOT":2.5e-7,"MEAN_MOTION_DDOT":0},{"OBJECT_NAME":"ONEWEB-0595","OBJECT_ID":"2022-166V","EPOCH":"2025-12-01T20:09:40.724352","MEAN_MOTION":13.21827189,"ECCENTRICITY":0.0001784,"INCLINATION":87.9203,"RA_OF_ASC_NODE":283.3338,"ARG_OF_PERICENTER":72.913,"MEAN_ANOMALY":287.2199,"EPHEMERIS_TYPE":0,"CLASSIFICATION_TYPE":"U","NORAD_CAT_ID":54661,"ELEMENT_SET_NO":999,"REV_AT_EPOCH":14546,"BSTAR":-0.00016487,"MEAN_MOTION_DOT":-5.5e-7,"MEAN_MOTION_DDOT":0},{"OBJECT_NAME":"ONEWEB-0596","OBJECT_ID":"2022-166W","EPOCH":"2025-12-01T19:31:45.996384","MEAN_MOTION":13.21830746,"ECCENTRICITY":0.0001788,"INCLINATION":87.9209,"RA_OF_ASC_NODE":283.3557,"ARG_OF_PERICENTER":76.9205,"MEAN_ANOMALY":283.2129,"EPHEMERIS_TYPE":0,"CLASSIFICATION_TYPE":"U","NORAD_CAT_ID":54662,"ELEMENT_SET_NO":999,"REV_AT_EPOCH":14546,"BSTAR":0.0015613,"MEAN_MOTION_DOT":6.58e-6,"MEAN_MOTION_DDOT":0}]
